{
  "type": "FeatureCollection",
  "features": [
    {
      "type": "Feature",
      "properties": {
        "norad_id": 29887,
        "name": "FENGYUN 1C DEB",
        "group": "fengyun-1c-debris",
        "lat": 14.133304770727724,
        "lon": -108.38026068944659,
        "alt_km": 982.0645030845126,
        "timestamp": "2025-12-13T18:50:04.702601+00:00",
        "meta_object_name": "FENGYUN 1C DEB",
        "meta_object_id": "1999-025GH",
        "meta_epoch": "2025-12-13T04:47:41.151840",
        "meta_mean_motion": 14.3371284,
        "meta_eccentricity": 0.02869651,
        "meta_inclination": 98.7178,
        "meta_ra_of_asc_node": 68.8153,
        "meta_arg_of_pericenter": 357.7849,
        "meta_mean_anomaly": 29.5411,
        "meta_ephemeris_type": 0,
        "meta_classification_type": "U",
        "meta_norad_cat_id": 29887,
        "meta_element_set_no": 999,
        "meta_rev_at_epoch": 97981,
        "meta_bstar": 0.00082695842,
        "meta_mean_motion_dot": 3.59e-05,
        "meta_mean_motion_ddot": 0,
        "tle_line1": "1 29887U 99025GH  25347.19978185  .00003590  00000+0  82696-3 0  9998",
        "tle_line2": "2 29887  98.7178  68.8153 0286965 357.7849  29.5411 14.33712840979815"
      },
      "geometry": {
        "type": "Point",
        "coordinates": [
          -108.38026068944659,
          14.133304770727724
        ]
      }
    },
    {
      "type": "Feature",
      "properties": {
        "norad_id": 29888,
        "name": "FENGYUN 1C DEB",
        "group": "fengyun-1c-debris",
        "lat": -12.381567331016848,
        "lon": -1.5018967511286099,
        "alt_km": 1025.1886034860936,
        "timestamp": "2025-12-13T18:50:04.702612+00:00",
        "meta_object_name": "FENGYUN 1C DEB",
        "meta_object_id": "1999-025GJ",
        "meta_epoch": "2025-12-13T06:06:03.296448",
        "meta_mean_motion": 14.19858765,
        "meta_eccentricity": 0.0275009,
        "meta_inclination": 99.1918,
        "meta_ra_of_asc_node": 179.9837,
        "meta_arg_of_pericenter": 23.8984,
        "meta_mean_anomaly": 337.468,
        "meta_ephemeris_type": 0,
        "meta_classification_type": "U",
        "meta_norad_cat_id": 29888,
        "meta_element_set_no": 999,
        "meta_rev_at_epoch": 97511,
        "meta_bstar": 0.00053587901,
        "meta_mean_motion_dot": 1.608e-05,
        "meta_mean_motion_ddot": 0,
        "tle_line1": "1 29888U 99025GJ  25347.25420482  .00001608  00000+0  53588-3 0  9994",
        "tle_line2": "2 29888  99.1918 179.9837 0275009  23.8984 337.4680 14.19858765975113"
      },
      "geometry": {
        "type": "Point",
        "coordinates": [
          -1.5018967511286099,
          -12.381567331016848
        ]
      }
    },
    {
      "type": "Feature",
      "properties": {
        "norad_id": 29889,
        "name": "FENGYUN 1C DEB",
        "group": "fengyun-1c-debris",
        "lat": -67.71141856365058,
        "lon": -98.80764490809338,
        "alt_km": 947.0912799138405,
        "timestamp": "2025-12-13T18:50:04.702622+00:00",
        "meta_object_name": "FENGYUN 1C DEB",
        "meta_object_id": "1999-025GK",
        "meta_epoch": "2025-12-13T07:44:32.487072",
        "meta_mean_motion": 14.13512804,
        "meta_eccentricity": 0.01544469,
        "meta_inclination": 99.4768,
        "meta_ra_of_asc_node": 104.7506,
        "meta_arg_of_pericenter": 37.4536,
        "meta_mean_anomaly": 22.6486,
        "meta_ephemeris_type": 0,
        "meta_classification_type": "U",
        "meta_norad_cat_id": 29889,
        "meta_element_set_no": 999,
        "meta_rev_at_epoch": 97327,
        "meta_bstar": 0.00041273632,
        "meta_mean_motion_dot": 8.22e-06,
        "meta_mean_motion_ddot": 0,
        "tle_line1": "1 29889U 99025GK  25347.32259823  .00000822  00000+0  41274-3 0  9998",
        "tle_line2": "2 29889  99.4768 104.7506 0154446  37.4536  22.6486 14.13512804973271"
      },
      "geometry": {
        "type": "Point",
        "coordinates": [
          -98.80764490809338,
          -67.71141856365058
        ]
      }
    },
    {
      "type": "Feature",
      "properties": {
        "norad_id": 29890,
        "name": "FENGYUN 1C DEB",
        "group": "fengyun-1c-debris",
        "lat": 29.38402016746492,
        "lon": -65.2237078754305,
        "alt_km": 811.5887241217897,
        "timestamp": "2025-12-13T18:50:04.702634+00:00",
        "meta_object_name": "FENGYUN 1C DEB",
        "meta_object_id": "1999-025GL",
        "meta_epoch": "2025-12-13T06:19:15.867840",
        "meta_mean_motion": 14.23041545,
        "meta_eccentricity": 0.00147702,
        "meta_inclination": 99.4674,
        "meta_ra_of_asc_node": 108.8246,
        "meta_arg_of_pericenter": 72.1601,
        "meta_mean_anomaly": 288.1185,
        "meta_ephemeris_type": 0,
        "meta_classification_type": "U",
        "meta_norad_cat_id": 29890,
        "meta_element_set_no": 999,
        "meta_rev_at_epoch": 97458,
        "meta_bstar": 0.0013624979,
        "meta_mean_motion_dot": 3.025e-05,
        "meta_mean_motion_ddot": 0,
        "tle_line1": "1 29890U 99025GL  25347.26337810  .00003025  00000+0  13625-2 0  9992",
        "tle_line2": "2 29890  99.4674 108.8246 0014770  72.1601 288.1185 14.23041545974589"
      },
      "geometry": {
        "type": "Point",
        "coordinates": [
          -65.2237078754305,
          29.38402016746492
        ]
      }
    },
    {
      "type": "Feature",
      "properties": {
        "norad_id": 29891,
        "name": "FENGYUN 1C DEB",
        "group": "fengyun-1c-debris",
        "lat": -10.990887552185944,
        "lon": -8.427881342088869,
        "alt_km": 898.9653100968571,
        "timestamp": "2025-12-13T18:50:04.702645+00:00",
        "meta_object_name": "FENGYUN 1C DEB",
        "meta_object_id": "1999-025GM",
        "meta_epoch": "2025-12-13T00:08:02.900832",
        "meta_mean_motion": 13.99997567,
        "meta_eccentricity": 0.00612591,
        "meta_inclination": 98.7264,
        "meta_ra_of_asc_node": 349.1195,
        "meta_arg_of_pericenter": 259.5745,
        "meta_mean_anomaly": 123.7891,
        "meta_ephemeris_type": 0,
        "meta_classification_type": "U",
        "meta_norad_cat_id": 29891,
        "meta_element_set_no": 999,
        "meta_rev_at_epoch": 96492,
        "meta_bstar": 0.000586861,
        "meta_mean_motion_dot": 8.35e-06,
        "meta_mean_motion_ddot": 0,
        "tle_line1": "1 29891U 99025GM  25347.00558913  .00000835  00000+0  58686-3 0  9997",
        "tle_line2": "2 29891  98.7264 349.1195 0061259 259.5745 123.7891 13.99997567964925"
      },
      "geometry": {
        "type": "Point",
        "coordinates": [
          -8.427881342088869,
          -10.990887552185944
        ]
      }
    },
    {
      "type": "Feature",
      "properties": {
        "norad_id": 29892,
        "name": "FENGYUN 1C DEB",
        "group": "fengyun-1c-debris",
        "lat": 21.655301886964686,
        "lon": -40.927835124387244,
        "alt_km": 881.9575159218521,
        "timestamp": "2025-12-13T18:50:04.702656+00:00",
        "meta_object_name": "FENGYUN 1C DEB",
        "meta_object_id": "1999-025GN",
        "meta_epoch": "2025-12-13T06:54:18.057600",
        "meta_mean_motion": 14.32204487,
        "meta_eccentricity": 0.01913308,
        "meta_inclination": 99.1808,
        "meta_ra_of_asc_node": 134.8644,
        "meta_arg_of_pericenter": 295.7428,
        "meta_mean_anomaly": 182.3058,
        "meta_ephemeris_type": 0,
        "meta_classification_type": "U",
        "meta_norad_cat_id": 29892,
        "meta_element_set_no": 999,
        "meta_rev_at_epoch": 96657,
        "meta_bstar": 0.0055062482,
        "meta_mean_motion_dot": 0.00018153,
        "meta_mean_motion_ddot": 0,
        "tle_line1": "1 29892U 99025GN  25347.28770900  .00018153  00000+0  55062-2 0  9996",
        "tle_line2": "2 29892  99.1808 134.8644 0191330 295.7428 182.3058 14.32204487966576"
      },
      "geometry": {
        "type": "Point",
        "coordinates": [
          -40.927835124387244,
          21.655301886964686
        ]
      }
    },
    {
      "type": "Feature",
      "properties": {
        "norad_id": 29893,
        "name": "FENGYUN 1C DEB",
        "group": "fengyun-1c-debris",
        "lat": 78.84159871470703,
        "lon": 34.022149064020894,
        "alt_km": 908.2949424221679,
        "timestamp": "2025-12-13T18:50:04.702667+00:00",
        "meta_object_name": "FENGYUN 1C DEB",
        "meta_object_id": "1999-025GP",
        "meta_epoch": "2025-12-13T06:32:56.928768",
        "meta_mean_motion": 13.79461897,
        "meta_eccentricity": 0.01736737,
        "meta_inclination": 98.5534,
        "meta_ra_of_asc_node": 83.286,
        "meta_arg_of_pericenter": 151.9844,
        "meta_mean_anomaly": 271.9547,
        "meta_ephemeris_type": 0,
        "meta_classification_type": "U",
        "meta_norad_cat_id": 29893,
        "meta_element_set_no": 999,
        "meta_rev_at_epoch": 95147,
        "meta_bstar": 0.00032363412,
        "meta_mean_motion_dot": 3.36e-06,
        "meta_mean_motion_ddot": 0,
        "tle_line1": "1 29893U 99025GP  25347.27288112  .00000336  00000+0  32363-3 0  9999",
        "tle_line2": "2 29893  98.5534  83.2860 0173673 151.9844 271.9547 13.79461897951479"
      },
      "geometry": {
        "type": "Point",
        "coordinates": [
          34.022149064020894,
          78.84159871470703
        ]
      }
    }
  ]
}